[{"OBJECT_NAME":"OBJECT A","OBJECT_ID":"2024-174A","EPOCH":"2026-03-09T17:44:03.378336","MEAN_MOTION":15.19157836,"ECCENTRICITY":0.00014022,"INCLINATION":97.4523,"RA_OF_ASC_NODE":77.8721,"ARG_OF_PERICENTER":95.7936,"MEAN_ANOMALY":264.3459,"EPHEMERIS_TYPE":0,"CLASSIFICATION_TYPE":"U","NORAD_CAT_ID":61238,"ELEMENT_SET_NO":999,"REV_AT_EPOCH":8058,"BSTAR":0.00024396244,"MEAN_MOTION_DOT":5.06e-5,"MEAN_MOTION_DDOT":0},{"OBJECT_NAME":"KONDOR-FKA NO. 2","OBJECT_ID":"2024-223A","EPOCH":"2026-03-09T11:47:52.628640","MEAN_MOTION":15.1977694,"ECCENTRICITY":0.00018388,"INCLINATION":97.4353,"RA_OF_ASC_NODE":273.3867,"ARG_OF_PERICENTER":85.6363,"MEAN_ANOMALY":274.5082,"EPHEMERIS_TYPE":0,"CLASSIFICATION_TYPE":"U","NORAD_CAT_ID":62138,"ELEMENT_SET_NO":999,"REV_AT_EPOCH":7056,"BSTAR":0.00026619271,"MEAN_MOTION_DOT":5.629e-5,"MEAN_MOTION_DDOT":0}]
